{"spkid": "50712443", "covariance": {"epoch": "2457683.5", "labels": ["e", "q", "tp", "node", "peri", "i"], "elements": [{"name": "e", "sigma": 5.39570510223112e-08, "title": "eccentricity", "value": ".9220482729324913", "units": null, "label": "e"}, {"label": "q", "name": "q", "sigma": 1.0440206082327e-07, "units": "au", "value": ".1502547158719422", "title": "perihelion distance"}, {"label": "tp", "value": "2457994.835589242843", "title": "time of perihelion passage", "units": "TDB", "name": "tp", "sigma": 2.88591351711177e-05}, {"title": "longitude of the ascending node", "value": "51.89349943233646", "units": "deg", "name": "om", "sigma": 0.00013889032303916, "label": "node"}, {"units": "deg", "title": "argument of perihelion", "value": "315.24716388895", "name": "w", "sigma": 0.000138110633947234, "label": "peri"}, {"label": "i", "units": "deg", "title": "inclination", "value": "4.845640433687571", "name": "i", "sigma": 7.25352097759206e-06}], "data": [["2.911363355024294E-15", "-5.632925067333181E-15", "1.120474774484913E-12", "-4.804344425547989E-13", "1.277554076083484E-13", "-1.018478407213412E-13"], ["-5.632925067333181E-15", "1.089979030414569E-14", "-2.177401443719931E-12", "9.307628787794098E-13", "-2.509663609385701E-13", "1.985101723148418E-13"], ["1.120474774484913E-12", "-2.177401443719931E-12", "8.328496828248418E-10", "-5.284152994600846E-11", "-1.038976599600212E-11", "-1.049797024554138E-10"], ["-4.804344425547989E-13", "9.307628787794098E-13", "-5.284152994600846E-11", "1.929052183392216E-8", "-1.914236661643792E-8", "-4.943571528361349E-10"], ["1.277554076083484E-13", "-2.509663609385701E-13", "-1.038976599600212E-11", "-1.914236661643792E-8", "1.907454720930678E-8", "4.943029878373811E-10"], ["-1.018478407213412E-13", "1.985101723148418E-13", "-1.049797024554138E-10", "-4.943571528361349E-10", "4.943029878373811E-10", "5.261356657236809E-11"]]}, "elements": [{"label": "e", "value": ".9219358897945003", "title": "eccentricity", "units": null, "name": "e", "sigma": "5.3992E-8"}, {"label": "a", "sigma": "1.44E-8", "name": "a", "units": "au", "value": "1.925925529664662", "title": "semi-major axis"}, {"sigma": "1.0443E-7", "name": "q", "units": "au", "title": "perihelion distance", "value": ".1503456627953277", "label": "q"}, {"label": "i", "sigma": "7.2628E-6", "name": "i", "value": "4.857402370004292", "title": "inclination; angle with respect to x-y ecliptic plane", "units": "deg"}, {"units": "deg", "title": "longitude of the ascending node", "value": "51.7406352215376", "sigma": ".00013798", "name": "om", "label": "node"}, {"name": "w", "sigma": ".0001372", "title": "argument of perihelion", "value": "315.41317310", "units": "deg", "label": "peri"}, {"label": "M", "sigma": "1.1668E-5", "name": "ma", "units": "deg", "title": "mean anomaly", "value": "101.7829108456229"}, {"label": "tp", "title": "time of perihelion passage", "value": "2460924.486688128955", "units": "TDB", "name": "tp", "sigma": "2.978E-5"}, {"sigma": "1.0949E-5", "name": "per", "units": "d", "value": "976.2423912623767", "title": "sidereal orbital period", "label": "period"}, {"label": "n", "units": "deg/d", "value": ".36876087662459", "title": "mean motion", "name": "n", "sigma": "4.1359E-9"}, {"sigma": "2.7676E-8", "name": "ad", "title": "aphelion distance", "value": "3.701505396533997", "units": "au", "label": "Q"}], "epoch": "2461200.5"}